[{"OBJECT_NAME":"GEESAT-2 07","OBJECT_ID":"2024-023G","EPOCH":"2026-03-09T22:31:13.906560","MEAN_MOTION":14.82879957,"ECCENTRICITY":0.00101218,"INCLINATION":50.0054,"RA_OF_ASC_NODE":94.2079,"ARG_OF_PERICENTER":37.2132,"MEAN_ANOMALY":322.9506,"EPHEMERIS_TYPE":0,"CLASSIFICATION_TYPE":"U","NORAD_CAT_ID":58911,"ELEMENT_SET_NO":999,"REV_AT_EPOCH":11418,"BSTAR":0.00018036206,"MEAN_MOTION_DOT":1.251e-5,"MEAN_MOTION_DDOT":0},{"OBJECT_NAME":"KUIPER-00147","OBJECT_ID":"2025-217G","EPOCH":"2026-03-09T07:32:50.582976","MEAN_MOTION":14.79937962,"ECCENTRICITY":4.753e-5,"INCLINATION":51.8994,"RA_OF_ASC_NODE":42.2587,"ARG_OF_PERICENTER":107.8804,"MEAN_ANOMALY":252.2211,"EPHEMERIS_TYPE":0,"CLASSIFICATION_TYPE":"U","NORAD_CAT_ID":65768,"ELEMENT_SET_NO":999,"REV_AT_EPOCH":2485,"BSTAR":2.5065127e-5,"MEAN_MOTION_DOT":-3.0e-7,"MEAN_MOTION_DDOT":0}]
